IXPE                    
1 49954U 21121A   24186.58334491  .00005019  00000+0  34206-3 0  9998
2 49954   0.2292 264.5427 0009717 176.7104 353.2220 14.98419727  5743
